OBJECT_NAME,OBJECT_ID,EPOCH,MEAN_MOTION,ECCENTRICITY,INCLINATION,RA_OF_ASC_NODE,ARG_OF_PERICENTER,MEAN_ANOMALY,EPHEMERIS_TYPE,CLASSIFICATION_TYPE,NORAD_CAT_ID,ELEMENT_SET_NO,REV_AT_EPOCH,BSTAR,MEAN_MOTION_DOT,MEAN_MOTION_DDOT
EAGLEEYE,2024-149AS,2026-05-20T05:22:57.235584,15.65988359,.00012416,97.3727,232.1279,7.4779,352.6499,0,U,60508,999,9855,.59503765E-3,.60898E-3,0
FLOCK 4BE-29,2024-149AT,2026-05-20T04:13:25.879872,15.43133815,.00034519,97.3807,225.6489,65.3710,294.7897,0,U,60509,999,9809,.29903051E-3,.13158E-3,0
TRANSPORTER-11 OBJECT AU,2024-149AU,2026-05-20T12:05:45.525696,15.39369300,.0004242,97.3728,224.0214,50.4932,309.6688,0,U,60510,999,9805,.28782E-3,.11171E-3,0
FLOCK 4BE-2,2024-149AV,2026-05-20T12:18:54.127872,15.49609632,.0002872,97.3817,227.0868,58.0364,302.1166,0,U,60511,999,9821,.73201E-3,.40523E-3,0
FLOCK 4BE-13,2024-149AW,2026-05-20T04:15:38.985120,15.41059384,.00040902,97.3720,224.3158,32.0764,328.0731,0,U,60512,999,9805,.24942602E-3,.10224E-3,0
FLOCK 4BE-27,2024-149AX,2026-05-20T05:07:31.139040,15.33907482,.00048748,97.3824,222.0627,60.3099,299.8628,0,U,60513,999,9785,.19994358E-3,.648E-4,0
FLOCK 4BE-9,2024-149AY,2026-05-20T05:18:15.680448,15.39877453,.00035644,97.3788,224.2411,66.0699,294.0920,0,U,60514,999,9801,.29601903E-3,.11685E-3,0
FLOCK 4BE-6,2024-149BA,2026-05-20T11:43:29.091360,15.38749112,.0004208,97.3786,223.9198,59.5191,300.6469,0,U,60516,999,9801,.29742E-3,.11315E-3,0
FLOCK 4BE-14,2024-149BB,2026-05-20T04:07:20.716320,15.40044707,.00049868,97.3695,223.7146,55.6424,304.5294,0,U,60517,999,9801,.31280524E-3,.12424E-3,0
FLOCK 4BE-1,2024-149BC,2026-05-20T05:11:24.363744,15.41573054,.00045585,97.3779,224.9384,55.6325,304.5352,0,U,60518,999,9806,.29958078E-3,.12512E-3,0
FLOCK 4BE-28,2024-149BD,2026-05-20T04:58:08.466816,15.43841503,.00045677,97.3747,225.5679,49.6507,310.5140,0,U,60519,999,9812,.30436374E-3,.13721E-3,0
IPERDRONE.0,2024-149BE,2026-05-20T05:30:20.896992,15.62607062,.0001042,97.3779,232.1514,354.9795,5.1452,0,U,60520,999,9854,.59674E-3,.53415E-3,0
TRANSPORTER-11 OBJECT BF,2024-149BF,2026-05-20T05:51:00.470016,15.74082279,.0001461,97.3780,234.2675,271.6379,88.4718,0,U,60521,999,9867,.79537E-3,.114518E-2,0
CONNECTA IOT-2,2024-149BG,2026-05-20T11:15:40.482720,15.23708504,.000795,97.3840,219.0401,69.6400,290.5691,0,U,60522,999,9767,.12814E-3,.3008E-4,0
PTD-R (TYVAK-0127),2024-149BH,2026-05-20T12:14:03.924096,15.90111170,.0002265,97.3792,238.7654,243.0342,117.0700,0,U,60523,999,9901,.55368E-3,.164908E-2,.11963E-4
CONNECTA IOT-4,2024-149BJ,2026-05-20T11:46:31.869696,15.41025528,.0005574,97.3794,224.5568,44.3982,315.7711,0,U,60524,999,9806,.35273E-3,.14488E-3,0
ORESAT0.5,2024-149BK,2026-05-20T04:40:23.477088,15.43937874,.0005519,97.3721,225.7912,35.6198,324.5418,0,U,60525,999,9815,.32823138E-3,.14857E-3,0
DEIMOS,2024-149BL,2026-05-20T12:52:05.632320,15.43145343,.0005733,97.3781,226.2909,40.7196,319.4479,0,U,60526,999,9818,.31236E-3,.1376E-3,0
CUAVA-2,2024-149BM,2026-05-20T10:57:59.844096,15.35411938,.0007338,97.3725,221.9441,44.4010,315.7820,0,U,60527,999,9791,.25647E-3,.875E-4,0
ERNST,2024-149BN,2026-05-20T12:47:45.627072,15.38404771,.0006687,97.3806,224.0625,48.3391,311.8426,0,U,60528,999,9802,.27715E-3,.10423E-3,0
TORO,2024-149BQ,2026-05-20T03:42:15.522912,14.96307457,.00019198,97.6792,215.3468,95.1539,264.9902,0,U,60530,999,9576,.15433864E-3,.1688E-4,0
HYPSO-2,2024-149BR,2026-05-20T03:49:30.668736,14.98638016,.00028839,97.6829,216.8287,96.8258,263.3292,0,U,60531,999,9585,.19473317E-3,.2279E-4,0
LEMU NGE,2024-149BS,2026-05-20T06:32:51.053568,14.94819731,.0002638,97.6846,215.7984,104.6829,255.4684,0,U,60532,999,9578,.12645E-3,.132E-4,0
LEMUR-2-STELLA,2024-149BT,2026-05-20T06:38:33.126720,15.11124819,.000223,97.6733,222.6250,114.9898,245.1563,0,U,60533,999,9628,.45138E-3,.7502E-4,0
SATELIOT_2,2024-149BU,2026-05-20T11:23:33.355104,14.96241841,.0001606,97.6830,215.9377,116.2269,243.9117,0,U,60534,999,9582,.11715E-3,.1265E-4,0
NIGHTJAR,2024-149BV,2026-05-20T11:43:37.727904,14.98834376,.0002326,97.6837,217.5809,126.6827,233.4610,0,U,60535,999,13872,.19879E-3,.234E-4,0
LEMUR-2-MARHISYAM,2024-149BW,2026-05-20T04:20:37.832352,15.10603986,.00021712,97.6873,222.9486,176.5937,183.5307,0,U,60536,999,9625,.51677249E-3,.8476E-4,0
SATELIOT_4,2024-149BX,2026-05-20T03:45:59.345568,14.96556293,.00036466,97.6744,215.1722,114.2749,245.8854,0,U,60537,999,9578,.16144743E-3,.178E-4,0
PICO-02A021,2024-149BY,2026-05-20T11:21:09.834336,15.02958507,.0007358,97.6763,219.5522,107.1000,253.1032,0,U,60538,999,9557,.23433E-3,.309E-4,0
ICEYE-X43,2024-149BZ,2026-05-20T11:21:17.021952,14.99774686,.0005433,97.6761,217.8210,172.2759,187.8549,0,U,60539,999,9596,.16782E-3,.2016E-4,0
